{
  "type": "FeatureCollection",
  "features": [
    {
      "type": "Feature",
      "properties": {
        "norad_id": 63632,
        "name": "SHENZHOU-20 (SZ-20)",
        "group": "stations",
        "lat": -37.73508062210608,
        "lon": -69.15987035087986,
        "alt_km": 395.09800075457224,
        "timestamp": "2025-12-07T07:31:35.103240+00:00",
        "meta_object_name": "SHENZHOU-20 (SZ-20)",
        "meta_object_id": "2025-082A",
        "meta_epoch": "2025-12-06T21:14:35.052288",
        "meta_mean_motion": 15.58811356,
        "meta_eccentricity": 0.00094534,
        "meta_inclination": 41.4683,
        "meta_ra_of_asc_node": 52.2413,
        "meta_arg_of_pericenter": 344.5349,
        "meta_mean_anomaly": 15.5199,
        "meta_ephemeris_type": 0,
        "meta_classification_type": "U",
        "meta_norad_cat_id": 63632,
        "meta_element_set_no": 999,
        "meta_rev_at_epoch": 25530,
        "meta_bstar": 0.00035334049,
        "meta_mean_motion_dot": 0.00027906,
        "meta_mean_motion_ddot": 0,
        "tle_line1": "1 63632U 25082A   25340.88512792  .00027906  00000+0  35334-3 0  9997",
        "tle_line2": "2 63632  41.4683  52.2413 0009453 344.5349  15.5199 15.58811356255306"
      },
      "geometry": {
        "type": "Point",
        "coordinates": [
          -69.15987035087986,
          -37.73508062210608
        ]
      }
    },
    {
      "type": "Feature",
      "properties": {
        "norad_id": 64751,
        "name": "PROGRESS-MS 31",
        "group": "stations",
        "lat": -14.435944738912326,
        "lon": 157.57553328608847,
        "alt_km": 422.3408605350505,
        "timestamp": "2025-12-07T07:31:35.103250+00:00",
        "meta_object_name": "PROGRESS-MS 31",
        "meta_object_id": "2025-146A",
        "meta_epoch": "2025-12-06T20:46:13.238400",
        "meta_mean_motion": 15.49374779,
        "meta_eccentricity": 0.00034973,
        "meta_inclination": 51.6304,
        "meta_ra_of_asc_node": 171.5636,
        "meta_arg_of_pericenter": 213.1314,
        "meta_mean_anomaly": 146.9456,
        "meta_ephemeris_type": 0,
        "meta_classification_type": "U",
        "meta_norad_cat_id": 64751,
        "meta_element_set_no": 999,
        "meta_rev_at_epoch": 675,
        "meta_bstar": 0.00025393652,
        "meta_mean_motion_dot": 0.0001375,
        "meta_mean_motion_ddot": 0,
        "tle_line1": "1 64751U 25146A   25340.86543100  .00013750  00000+0  25394-3 0  9993",
        "tle_line2": "2 64751  51.6304 171.5636 0003497 213.1314 146.9456 15.49374779  6750"
      },
      "geometry": {
        "type": "Point",
        "coordinates": [
          157.57553328608847,
          -14.435944738912326
        ]
      }
    },
    {
      "type": "Feature",
      "properties": {
        "norad_id": 64786,
        "name": "TIANZHOU-9",
        "group": "stations",
        "lat": -37.73508103617227,
        "lon": -69.15986879617168,
        "alt_km": 395.09800063185867,
        "timestamp": "2025-12-07T07:31:35.103260+00:00",
        "meta_object_name": "TIANZHOU-9",
        "meta_object_id": "2025-149A",
        "meta_epoch": "2025-12-06T21:14:35.052288",
        "meta_mean_motion": 15.58811356,
        "meta_eccentricity": 0.00094534,
        "meta_inclination": 41.4683,
        "meta_ra_of_asc_node": 52.2413,
        "meta_arg_of_pericenter": 344.5349,
        "meta_mean_anomaly": 15.5199,
        "meta_ephemeris_type": 0,
        "meta_classification_type": "U",
        "meta_norad_cat_id": 64786,
        "meta_element_set_no": 999,
        "meta_rev_at_epoch": 25530,
        "meta_bstar": 0.00035334049,
        "meta_mean_motion_dot": 0.00027906,
        "meta_mean_motion_ddot": 0,
        "tle_line1": "1 64786U 25149A   25340.88512792  .00027906  00000+0  35334-3 0  9992",
        "tle_line2": "2 64786  41.4683  52.2413 0009453 344.5349  15.5199 15.58811356255307"
      },
      "geometry": {
        "type": "Point",
        "coordinates": [
          -69.15986879617168,
          -37.73508103617227
        ]
      }
    },
    {
      "type": "Feature",
      "properties": {
        "norad_id": 65077,
        "name": "CREW DRAGON 11",
        "group": "stations",
        "lat": -14.43594374835322,
        "lon": 157.57553413973037,
        "alt_km": 422.34086047971505,
        "timestamp": "2025-12-07T07:31:35.103270+00:00",
        "meta_object_name": "CREW DRAGON 11",
        "meta_object_id": "2025-166A",
        "meta_epoch": "2025-12-06T20:46:13.238400",
        "meta_mean_motion": 15.49374779,
        "meta_eccentricity": 0.00034973,
        "meta_inclination": 51.6304,
        "meta_ra_of_asc_node": 171.5636,
        "meta_arg_of_pericenter": 213.1314,
        "meta_mean_anomaly": 146.9456,
        "meta_ephemeris_type": 0,
        "meta_classification_type": "U",
        "meta_norad_cat_id": 65077,
        "meta_element_set_no": 999,
        "meta_rev_at_epoch": 214,
        "meta_bstar": 0.00025393652,
        "meta_mean_motion_dot": 0.0001375,
        "meta_mean_motion_ddot": 0,
        "tle_line1": "1 65077U 25166A   25340.86543100  .00013750  00000+0  25394-3 0  9997",
        "tle_line2": "2 65077  51.6304 171.5636 0003497 213.1314 146.9456 15.49374779  2141"
      },
      "geometry": {
        "type": "Point",
        "coordinates": [
          157.57553413973037,
          -14.43594374835322
        ]
      }
    },
    {
      "type": "Feature",
      "properties": {
        "norad_id": 65304,
        "name": "DRAGON CRS-33",
        "group": "stations",
        "lat": -14.435943154018048,
        "lon": 157.57553465191526,
        "alt_km": 422.34086044651394,
        "timestamp": "2025-12-07T07:31:35.103282+00:00",
        "meta_object_name": "DRAGON CRS-33",
        "meta_object_id": "2025-186A",
        "meta_epoch": "2025-12-06T20:46:13.238400",
        "meta_mean_motion": 15.49374779,
        "meta_eccentricity": 0.00034973,
        "meta_inclination": 51.6304,
        "meta_ra_of_asc_node": 171.5636,
        "meta_arg_of_pericenter": 213.1314,
        "meta_mean_anomaly": 146.9456,
        "meta_ephemeris_type": 0,
        "meta_classification_type": "U",
        "meta_norad_cat_id": 65304,
        "meta_element_set_no": 999,
        "meta_rev_at_epoch": 11,
        "meta_bstar": 0.00025393652,
        "meta_mean_motion_dot": 0.0001375,
        "meta_mean_motion_ddot": 0,
        "tle_line1": "1 65304U 25186A   25340.86543100  .00013750  00000+0  25394-3 0  9992",
        "tle_line2": "2 65304  51.6304 171.5636 0003497 213.1314 146.9456 15.49374779   119"
      },
      "geometry": {
        "type": "Point",
        "coordinates": [
          157.57553465191526,
          -14.435943154018048
        ]
      }
    },
    {
      "type": "Feature",
      "properties": {
        "norad_id": 65586,
        "name": "PROGRESS-MS 32",
        "group": "stations",
        "lat": -14.435942658737831,
        "lon": 157.57553507873675,
        "alt_km": 422.3408604188462,
        "timestamp": "2025-12-07T07:31:35.103292+00:00",
        "meta_object_name": "PROGRESS-MS 32",
        "meta_object_id": "2025-204A",
        "meta_epoch": "2025-12-06T20:46:13.238400",
        "meta_mean_motion": 15.49374779,
        "meta_eccentricity": 0.00034973,
        "meta_inclination": 51.6304,
        "meta_ra_of_asc_node": 171.5636,
        "meta_arg_of_pericenter": 213.1314,
        "meta_mean_anomaly": 146.9456,
        "meta_ephemeris_type": 0,
        "meta_classification_type": "U",
        "meta_norad_cat_id": 65586,
        "meta_element_set_no": 999,
        "meta_rev_at_epoch": 27,
        "meta_bstar": 0.00025393652,
        "meta_mean_motion_dot": 0.0001375,
        "meta_mean_motion_ddot": 0,
        "tle_line1": "1 65586U 25204A   25340.86543100  .00013750  00000+0  25394-3 0  9995",
        "tle_line2": "2 65586  51.6304 171.5636 0003497 213.1314 146.9456 15.49374779   278"
      },
      "geometry": {
        "type": "Point",
        "coordinates": [
          157.57553507873675,
          -14.435942658737831
        ]
      }
    },
    {
      "type": "Feature",
      "properties": {
        "norad_id": 65616,
        "name": "CYGNUS NG-23",
        "group": "stations",
        "lat": -14.435942163457922,
        "lon": 157.57553550555798,
        "alt_km": 422.34086039117847,
        "timestamp": "2025-12-07T07:31:35.103302+00:00",
        "meta_object_name": "CYGNUS NG-23",
        "meta_object_id": "2025-208A",
        "meta_epoch": "2025-12-06T20:46:13.238400",
        "meta_mean_motion": 15.49374779,
        "meta_eccentricity": 0.00034973,
        "meta_inclination": 51.6304,
        "meta_ra_of_asc_node": 171.5636,
        "meta_arg_of_pericenter": 213.1314,
        "meta_mean_anomaly": 146.9456,
        "meta_ephemeris_type": 0,
        "meta_classification_type": "U",
        "meta_norad_cat_id": 65616,
        "meta_element_set_no": 999,
        "meta_rev_at_epoch": 22,
        "meta_bstar": 0.00025393652,
        "meta_mean_motion_dot": 0.0001375,
        "meta_mean_motion_ddot": 0,
        "tle_line1": "1 65616U 25208A   25340.86543100  .00013750  00000+0  25394-3 0  9993",
        "tle_line2": "2 65616  51.6304 171.5636 0003497 213.1314 146.9456 15.49374779   227"
      },
      "geometry": {
        "type": "Point",
        "coordinates": [
          157.57553550555798,
          -14.435942163457922
        ]
      }
    }
  ]
}